{
  "norad_id": 31121,
  "name": "SAUDICOMSAT 6",
  "history": [
    {
      "epoch": "2026-03-28T21:45:19.010592Z",
      "apogee_km": 735.4389790324185,
      "perigee_km": 635.0505246169741,
      "latitude_deg": -4.726156262785226e-06,
      "longitude_deg": -98.67600366592877,
      "height_km": 728.7888427618641,
      "semi_major_axis_km": 7063.381751824696,
      "eccentricity": 0.00710626,
      "inclination_deg": 98.4021,
      "raan_deg": 53.9734,
      "arg_perigee_deg": 215.9861,
      "mean_anomaly_deg": 143.6544,
      "mean_motion_rev_day": 14.62459148
    },
    {
      "epoch": "2026-03-29T04:19:24.564288Z",
      "apogee_km": 735.4447348406065,
      "perigee_km": 635.0388056217689,
      "latitude_deg": -3.461088682530542e-05,
      "longitude_deg": 162.80961360632998,
      "height_km": 729.2365859152513,
      "semi_major_axis_km": 7063.378770231187,
      "eccentricity": 0.0071075,
      "inclination_deg": 98.4022,
      "raan_deg": 54.2519,
      "arg_perigee_deg": 215.1229,
      "mean_anomaly_deg": 144.5275,
      "mean_motion_rev_day": 14.62460074
    },
    {
      "epoch": "2026-03-30T03:18:43.997472Z",
      "apogee_km": 735.4798349132107,
      "perigee_km": 634.9949990498353,
      "latitude_deg": 6.468925380304166e-06,
      "longitude_deg": 178.0090228944834,
      "height_km": 730.7406027749267,
      "semi_major_axis_km": 7063.374416981523,
      "eccentricity": 0.00711309,
      "inclination_deg": 98.4023,
      "raan_deg": 55.2264,
      "arg_perigee_deg": 212.1087,
      "mean_anomaly_deg": 147.5772,
      "mean_motion_rev_day": 14.62461426
    },
    {
      "epoch": "2026-03-30T09:52:49.551168Z",
      "apogee_km": 735.4895969989311,
      "perigee_km": 634.9830217031149,
      "latitude_deg": -4.11809553969494e-05,
      "longitude_deg": 79.49454303810592,
      "height_km": 731.1479576974065,
      "semi_major_axis_km": 7063.373309351023,
      "eccentricity": 0.00711463,
      "inclination_deg": 98.4024,
      "raan_deg": 55.5048,
      "arg_perigee_deg": 211.2495,
      "mean_anomaly_deg": 148.4467,
      "mean_motion_rev_day": 14.6246177
    },
    {
      "epoch": "2026-03-30T21:22:29.224992Z",
      "apogee_km": 735.5064140877066,
      "perigee_km": 634.9610270891035,
      "latitude_deg": 3.7293138420704766e-05,
      "longitude_deg": -92.905631876292,
      "height_km": 731.8364530819558,
      "semi_major_axis_km": 7063.370720588405,
      "eccentricity": 0.00711738,
      "inclination_deg": 98.4025,
      "raan_deg": 55.992,
      "arg_perigee_deg": 209.7482,
      "mean_anomaly_deg": 149.9664,
      "mean_motion_rev_day": 14.62462574
    },
    {
      "epoch": "2026-03-31T15:26:14.425728Z",
      "apogee_km": 735.5313741445716,
      "perigee_km": 634.9278435348679,
      "latitude_deg": -3.621145908362167e-05,
      "longitude_deg": -3.8200592535999967,
      "height_km": 732.8625176686033,
      "semi_major_axis_km": 7063.366608839719,
      "eccentricity": 0.0071215,
      "inclination_deg": 98.4026,
      "raan_deg": 56.7577,
      "arg_perigee_deg": 207.3748,
      "mean_anomaly_deg": 152.3693,
      "mean_motion_rev_day": 14.62463851
    },
    {
      "epoch": "2026-04-01T20:59:39.202656Z",
      "apogee_km": 735.5802213100142,
      "perigee_km": 634.8707986427708,
      "latitude_deg": 2.76930985937456e-05,
      "longitude_deg": -87.1341622942269,
      "height_km": 734.3759347274071,
      "semi_major_axis_km": 7063.362509976392,
      "eccentricity": 0.007129,
      "inclination_deg": 98.4028,
      "raan_deg": 58.0107,
      "arg_perigee_deg": 203.513,
      "mean_anomaly_deg": 156.2807,
      "mean_motion_rev_day": 14.62465124
    },
    {
      "epoch": "2026-04-02T15:03:24.270336Z",
      "apogee_km": 735.6089530562303,
      "perigee_km": 634.83305778255,
      "latitude_deg": -1.0452837657413182e-06,
      "longitude_deg": 1.9519592323374244,
      "height_km": 735.2007554090101,
      "semi_major_axis_km": 7063.35800541939,
      "eccentricity": 0.00713371,
      "inclination_deg": 98.403,
      "raan_deg": 58.7764,
      "arg_perigee_deg": 201.1414,
      "mean_anomaly_deg": 158.6835,
      "mean_motion_rev_day": 14.62466523
    },
    {
      "epoch": "2026-04-03T20:36:48.728448Z",
      "apogee_km": 735.6527374969583,
      "perigee_km": 634.7651310478022,
      "latitude_deg": -8.538218300198524e-06,
      "longitude_deg": -81.3606026648909,
      "height_km": 736.3659602997185,
      "semi_major_axis_km": 7063.34593427238,
      "eccentricity": 0.00714163,
      "inclination_deg": 98.4033,
      "raan_deg": 60.0296,
      "arg_perigee_deg": 197.2869,
      "mean_anomaly_deg": 162.5899,
      "mean_motion_rev_day": 14.62470272
    },
    {
      "epoch": "2026-04-05T10:22:49.849824Z",
      "apogee_km": 735.7217311982231,
      "perigee_km": 634.6834834512856,
      "latitude_deg": -6.163830137777562e-05,
      "longitude_deg": 72.18479632264322,
      "height_km": 737.5487789512196,
      "semi_major_axis_km": 7063.339607324754,
      "eccentricity": 0.0071523,
      "inclination_deg": 98.4036,
      "raan_deg": 61.6307,
      "arg_perigee_deg": 192.3634,
      "mean_anomaly_deg": 167.5814,
      "mean_motion_rev_day": 14.62472237
    },
    {
      "epoch": "2026-04-05T15:18:23.905152Z",
      "apogee_km": 735.7302646660619,
      "perigee_km": 634.6729601368506,
      "latitude_deg": 3.303664247063646e-05,
      "longitude_deg": -1.7005239825316627,
      "height_km": 737.6758143818566,
      "semi_major_axis_km": 7063.338612401456,
      "eccentricity": 0.00715365,
      "inclination_deg": 98.4036,
      "raan_deg": 61.8396,
      "arg_perigee_deg": 191.721,
      "mean_anomaly_deg": 168.2329,
      "mean_motion_rev_day": 14.62472546
    },
    {
      "epoch": "2026-04-07T08:21:27.459936Z",
      "apogee_km": 735.8085876992945,
      "perigee_km": 634.5805922839618,
      "latitude_deg": -4.477103084997876e-05,
      "longitude_deg": 102.58926755163729,
      "height_km": 738.4957658779841,
      "semi_major_axis_km": 7063.331589991628,
      "eccentricity": 0.00716574,
      "inclination_deg": 98.4039,
      "raan_deg": 63.5801,
      "arg_perigee_deg": 186.3739,
      "mean_anomaly_deg": 173.6557,
      "mean_motion_rev_day": 14.62474727
    },
    {
      "epoch": "2026-04-08T10:37:48.846144Z",
      "apogee_km": 735.8592729777401,
      "perigee_km": 634.523396557629,
      "latitude_deg": 6.213100203695033e-05,
      "longitude_deg": 68.53516172254247,
      "height_km": 738.7886940131259,
      "semi_major_axis_km": 7063.328334767684,
      "eccentricity": 0.00717338,
      "inclination_deg": 98.404,
      "raan_deg": 64.6941,
      "arg_perigee_deg": 182.9661,
      "mean_anomaly_deg": 177.1125,
      "mean_motion_rev_day": 14.62475738
    },
    {
      "epoch": "2026-04-09T19:28:15.473280Z",
      "apogee_km": 735.9207012927927,
      "perigee_km": 634.4504220364306,
      "latitude_deg": 8.696672200491832e-06,
      "longitude_deg": -64.03210175189766,
      "height_km": 738.8979410584665,
      "semi_major_axis_km": 7063.322561664611,
      "eccentricity": 0.0071829,
      "inclination_deg": 98.4041,
      "raan_deg": 66.0865,
      "arg_perigee_deg": 178.7061,
      "mean_anomaly_deg": 181.4339,
      "mean_motion_rev_day": 14.62477531
    },
    {
      "epoch": "2026-04-10T10:14:57.414624Z",
      "apogee_km": 735.9504912088887,
      "perigee_km": 634.4152679400067,
      "latitude_deg": -3.7054698926624725e-06,
      "longitude_deg": 74.31281898818338,
      "height_km": 738.8559893354725,
      "semi_major_axis_km": 7063.319879574447,
      "eccentricity": 0.0071875,
      "inclination_deg": 98.4041,
      "raan_deg": 66.7131,
      "arg_perigee_deg": 176.7809,
      "mean_anomaly_deg": 183.3869,
      "mean_motion_rev_day": 14.62478364
    },
    {
      "epoch": "2026-04-11T20:43:55.223040Z",
      "apogee_km": 736.0146001248531,
      "perigee_km": 634.3466191155021,
      "latitude_deg": 4.808540821032904e-05,
      "longitude_deg": -82.882114910627,
      "height_km": 738.5291320039045,
      "semi_major_axis_km": 7063.317609620177,
      "eccentricity": 0.0071969,
      "inclination_deg": 98.4042,
      "raan_deg": 68.1752,
      "arg_perigee_deg": 172.3096,
      "mean_anomaly_deg": 187.9227,
      "mean_motion_rev_day": 14.62479069
    },
    {
      "epoch": "2026-04-13T03:55:50.299104Z",
      "apogee_km": 736.0765500565603,
      "perigee_km": 634.2792084191988,
      "latitude_deg": -4.666045820769818e-06,
      "longitude_deg": 169.18002631820886,
      "height_km": 737.9684082438337,
      "semi_major_axis_km": 7063.31487923788,
      "eccentricity": 0.00720606,
      "inclination_deg": 98.4044,
      "raan_deg": 69.4981,
      "arg_perigee_deg": 168.2662,
      "mean_anomaly_deg": 192.0239,
      "mean_motion_rev_day": 14.62479917
    },
    {
      "epoch": "2026-04-14T20:58:53.179104Z",
      "apogee_km": 736.1559741474484,
      "perigee_km": 634.1928360281618,
      "latitude_deg": 2.3631729768490142e-05,
      "longitude_deg": -86.52707247907809,
      "height_km": 736.8452543261182,
      "semi_major_axis_km": 7063.311405087805,
      "eccentricity": 0.0072178,
      "inclination_deg": 98.4047,
      "raan_deg": 71.2389,
      "arg_perigee_deg": 162.9537,
      "mean_anomaly_deg": 197.4113,
      "mean_motion_rev_day": 14.62480996
    },
    {
      "epoch": "2026-04-15T19:58:11.532288Z",
      "apogee_km": 736.1946329596449,
      "perigee_km": 634.1509960693529,
      "latitude_deg": -2.5167309821381842e-05,
      "longitude_deg": -71.32283638378635,
      "height_km": 736.0265934534895,
      "semi_major_axis_km": 7063.309814514499,
      "eccentricity": 0.0072235,
      "inclination_deg": 98.4049,
      "raan_deg": 72.2137,
      "arg_perigee_deg": 159.9902,
      "mean_anomaly_deg": 200.4157,
      "mean_motion_rev_day": 14.6248149
    },
    {
      "epoch": "2026-04-16T10:44:53.320704Z",
      "apogee_km": 736.2106956543857,
      "perigee_km": 634.1317651089112,
      "latitude_deg": 2.4753281738378306e-06,
      "longitude_deg": 67.02282016647426,
      "height_km": 735.4260704260909,
      "semi_major_axis_km": 7063.308230381648,
      "eccentricity": 0.007226,
      "inclination_deg": 98.4051,
      "raan_deg": 72.8404,
      "arg_perigee_deg": 158.095,
      "mean_anomaly_deg": 202.3367,
      "mean_motion_rev_day": 14.62481982
    },
    {
      "epoch": "2026-04-17T21:13:50.742912Z",
      "apogee_km": 736.2785069287393,
      "perigee_km": 634.0576495062678,
      "latitude_deg": -9.860816058789801e-07,
      "longitude_deg": -90.17028722800382,
      "height_km": 733.8361877430523,
      "semi_major_axis_km": 7063.305078217503,
      "eccentricity": 0.00723605,
      "inclination_deg": 98.4052,
      "raan_deg": 74.3027,
      "arg_perigee_deg": 153.6438,
      "mean_anomaly_deg": 206.8473,
      "mean_motion_rev_day": 14.62482961
    },
    {
      "epoch": "2026-04-18T20:13:08.954400Z",
      "apogee_km": 736.3176187165909,
      "perigee_km": 634.0141523828661,
      "latitude_deg": -1.3100745233279677e-05,
      "longitude_deg": -74.9654662365491,
      "height_km": 732.6159075084586,
      "semi_major_axis_km": 7063.302885549729,
      "eccentricity": 0.0072419,
      "inclination_deg": 98.4053,
      "raan_deg": 75.2775,
      "arg_perigee_deg": 150.6836,
      "mean_anomaly_deg": 209.8458,
      "mean_motion_rev_day": 14.62483642
    }
  ]
}